[{"OBJECT_NAME":"STARLINK-35146","OBJECT_ID":"2025-192T","EPOCH":"2026-03-09T17:56:44.636640","MEAN_MOTION":15.31027108,"ECCENTRICITY":8.437e-5,"INCLINATION":53.1588,"RA_OF_ASC_NODE":232.0446,"ARG_OF_PERICENTER":78.0812,"MEAN_ANOMALY":282.0284,"EPHEMERIS_TYPE":0,"CLASSIFICATION_TYPE":"U","NORAD_CAT_ID":65421,"ELEMENT_SET_NO":999,"REV_AT_EPOCH":2938,"BSTAR":0.0010564982,"MEAN_MOTION_DOT":0.00031879,"MEAN_MOTION_DDOT":0},{"OBJECT_NAME":"AUREOLE 2","OBJECT_ID":"1973-107A","EPOCH":"2026-03-09T19:32:26.968128","MEAN_MOTION":15.58296371,"ECCENTRICITY":0.01243366,"INCLINATION":73.8954,"RA_OF_ASC_NODE":41.4828,"ARG_OF_PERICENTER":3.3524,"MEAN_ANOMALY":356.8494,"EPHEMERIS_TYPE":0,"CLASSIFICATION_TYPE":"U","NORAD_CAT_ID":7003,"ELEMENT_SET_NO":999,"REV_AT_EPOCH":68892,"BSTAR":0.00079431495,"MEAN_MOTION_DOT":0.00087862,"MEAN_MOTION_DDOT":0}]
